INTELSAT 701 (IS-701)   
1 22871U 93066A   16042.40482654 -.00000230  00000-0  00000+0 0  9995
2 22871   3.2599  69.7230 0003936 246.2762 301.1134  1.00272400 81465
INTELSAT 702 (IS-702)   
1 23124U 94034A   16041.70864743  .00000139  00000-0  00000+0 0  9995
2 23124   3.6045  67.9772 0001953 217.9487 142.2839  1.00274786 93484
INTELSAT 26 (IS-26)     
1 24732U 97007A   16043.07080109  .00000009  00000-0  00000+0 0  9998
2 24732   6.6753  53.8002 0002994 269.6277 265.7977  1.00272073 69390
GALAXY 25 (G-25)        
1 24812U 97026A   16042.86588001 -.00000178  00000-0  00000+0 0  9996
2 24812   0.0093  24.8625 0003312 297.9138  37.1747  1.00269680 68472
INTELSAT 5 (IS-5)       
1 24916U 97046A   16042.37789849 -.00000155  00000-0  00000+0 0  9997
2 24916   2.5846  73.6241 0003614 250.2003 110.0670  1.00272849 67728
INTELSAT 805 (IS-805)   
1 25371U 98037A   16043.21236262  .00000058  00000-0  00000+0 0  9995
2 25371   0.0524 284.5513 0004760  67.5261  71.5000  0.99532952 64684
INTELSAT 7 (IS-7)       
1 25473U 98052A   16042.87183880 -.00000160  00000-0  00000+0 0  9998
2 25473   2.1875  76.6645 0003191 193.4371 166.8907  1.00269570 63761
AFRISTAR                
1 25515U 98063A   16043.27865536  .00000109  00000-0  00000+0 0  9999
2 25515   2.3510  70.8917 0004559 250.3068 301.8573  1.00269268 63246
INTELSAT 8 (IS-8)       
1 25522U 98065A   16041.85941959 -.00000045  00000-0  00000+0 0  9995
2 25522   0.0255  91.2080 0003459 246.5884 280.9318  1.00271873 63221
GALAXY 27 (G-27)        
1 25922U 99052A   16042.63481861 -.00000020  00000-0  00000+0 0  9997
2 25922   2.2523  75.5701 0004961 249.2789 111.0024  1.00270170 60005
GALAXY 11 (G-11)        
1 26038U 99071A   16042.27635508  .00000016  00000-0  00000+0 0  9990
2 26038   0.0319  84.0354 0007471 272.7796 242.6915  1.00498500 59210
SIRIUS-1                
1 26390U 00035A   16041.41498424  .00000104  00000-0  00000-0 0  9991
2 26390  59.6888 233.9801 2587984 267.3751  54.8770  1.00274364 13817
INTELSAT 9 (IS-9)       
1 26451U 00043A   16043.46148992 -.00000287  00000-0  00000+0 0  9999
2 26451   2.5720  73.8543 0002770 238.9775 312.1235  1.00272095 56962
SIRIUS-2                
1 26483U 00051A   16043.47558591 -.00000017  00000-0  00000+0 0  9995
2 26483  64.4802 114.0759 2805661 266.7961 200.7896  1.00276687 56551
INTELSAT 12 (IS-12)     
1 26590U 00068A   16043.02925637  .00000121  00000-0  00000+0 0  9997
2 26590   0.0690 267.9239 0003291  54.6208 234.4692  1.00271458 55915
INTELSAT 1R (IS-1R)     
1 26608U 00072A   16042.97569560 -.00000298  00000-0  00000+0 0  9990
2 26608   0.0497 270.0259 0001007 339.7746 192.9041  1.00270937 55775
SIRIUS-3                
1 26626U 00077A   16040.77481414 -.00000108  00000-0  00000-0 0  9993
2 26626  64.4368 353.7840 2664977 268.8113  60.9304  1.00283013 55645
XM-1 (ROLL)             
1 26761U 01018A   16043.09157199 -.00000273  00000-0  00000+0 0  9999
2 26761   0.0565  88.8212 0000201 263.7168 142.9526  1.00268807 54140
INTELSAT 10 (IS-10)     
1 26766U 01019A   16042.77862689  .00000111  00000-0  00000+0 0  9996
2 26766   0.4984  87.3601 0002289 234.9704 146.7236  1.00271551 54043
INTELSAT 901 (IS-901)   
1 26824U 01024A   16042.85367353 -.00000157  00000-0  00000+0 0  9995
2 26824   0.0136  49.9058 0002474 265.5808 115.1496  1.00271951 53719
INTELSAT 902 (IS-902)   
1 26900U 01039A   16043.07079345  .00000017  00000-0  00000+0 0  9996
2 26900   0.0058  78.8404 0003121 248.6366 261.5325  1.00270231 52888
DIRECTV 4S              
1 26985U 01052A   16043.43061294 -.00000130  00000-0  00000+0 0  9995
2 26985   0.0285 279.9463 0002528  41.0149 234.7614  1.00271307 52110
INTELSAT 904 (IS-904)   
1 27380U 02007A   16042.20750833  .00000000  00000-0  10000-3 0  9994
2 27380   0.0427 281.6354 0003317  61.3064 292.4455  1.00269408 51207
INTELSAT 903 (IS-903)   
1 27403U 02016A   16043.14762714 -.00000255  00000-0  00000+0 0  9993
2 27403   0.0175 114.8335 0003399 217.3103 188.1374  1.00269238 50768
DIRECTV 5 (TEMPO 1)     
1 27426U 02023A   16042.91303996 -.00000072  00000-0  00000+0 0  9990
2 27426   0.0121 126.5444 0003379 195.1878  38.2438  1.00271695 50424
INTELSAT 905 (IS-905)   
1 27438U 02027A   16042.84823274 -.00000200  00000-0  00000+0 0  9998
2 27438   0.0554 271.2978 0002590  50.4554 100.4227  1.00271003 50077
GALAXY 3C (G-3C)        
1 27445U 02030A   16042.87138199 -.00000167  00000-0  00000+0 0  9990
2 27445   0.0147  71.4750 0001400 281.7468   6.7503  1.00274154 50078
INTELSAT 906 (IS-906)   
1 27513U 02041A   16042.69063940  .00000000  00000-0  10000-3 0  9999
2 27513   0.0067  34.4109 0003490 309.4415 110.1346  1.00271063 49083
INTELSAT 907 (IS-907)   
1 27683U 03007A   16041.68691022 -.00000216  00000-0  00000+0 0  9991
2 27683   0.0164  90.2718 0003112 232.8557  36.8263  1.00271665 47495
GALAXY 12 (G-12)        
1 27715U 03013B   16043.50808184  .00000042  00000-0  00000+0 0  9992
2 27715   0.0506 263.3839 0001539  42.3479 250.1353  1.00271540 47129
GALAXY 23 (G-23)        
1 27854U 03034A   16043.34758997 -.00000004  00000-0  00000+0 0  9996
2 27854   0.0144  90.6115 0003403 241.5451 173.8012  1.00273473 45740
GALAXY 13 (HORIZONS-1)  
1 27954U 03044A   16042.35874354  .00000033  00000-0  00000+0 0  9995
2 27954   0.0124  97.7245 0001938 177.9914 227.2594  1.00272631 45270
DIRECTV 7S              
1 28238U 04016A   16043.18913862 -.00000015  00000-0  00000+0 0  9992
2 28238   0.0179 311.8473 0003206  15.7449 123.1011  1.00270894 43186
INTELSAT 10-02          
1 28358U 04022A   16043.34439010 -.00000029  00000-0  00000+0 0  9993
2 28358   0.0160 128.5471 0000521 118.1164  18.1247  1.00267340 42746
XM-3 (RHYTHM)           
1 28626U 05008A   16042.35983362 -.00000221  00000-0  00000+0 0  9994
2 28626   0.0237 111.7048 0000444 224.5959 208.9754  1.00275418 40173
SPACEWAY 1              
1 28644U 05015A   16043.41881449 -.00000119  00000-0  00000+0 0  9999
2 28644   0.0287 274.3557 0000247 281.8660 353.4979  1.00271595 39631
DIRECTV 8               
1 28659U 05019A   16041.89008789 -.00000129  00000-0  00000+0 0  9998
2 28659   0.0118  73.9017 0003140 249.0303  37.0213  1.00271252 39297
GALAXY 28 (G-28)        
1 28702U 05022A   16042.54902054 -.00000200  00000-0  00000+0 0  9992
2 28702   0.0169  93.6113 0000196  49.4388 106.6075  1.00270521 38938
GALAXY 14 (G-14)        
1 28790U 05030A   16043.34747562  .00000020  00000-0  00000+0 0  9997
2 28790   0.0442 291.5484 0002397  31.8149 178.5207  1.00271680 38420
GALAXY 15 (G-15)        
1 28884U 05041A   16043.11082047  .00000063  00000-0  00000+0 0  9995
2 28884   0.0585 281.2470 0001907  51.9709  75.2371  1.00273478 37739
SPACEWAY 2              
1 28903U 05046B   16043.55212875 -.00000144  00000-0  00000+0 0  9995
2 28903   0.0162 286.3964 0000050 303.8633  11.4440  1.00273095 37610
GALAXY 16 (G-16)        
1 29236U 06023A   16043.06626407 -.00000143  00000-0  00000+0 0  9996
2 29236   0.0493 260.0535 0002324  42.3583 123.9554  1.00272326 35388
DIRECTV 9S              
1 29494U 06043A   16043.43061294 -.00000130  00000-0  00000+0 0  9998
2 29494   0.0434 265.6065 0003199  56.2125 233.9828  1.00271226 34221
XM-4 (BLUES)            
1 29520U 06049A   16043.34775769 -.00000039  00000-0  00000+0 0  9991
2 29520   0.0385 265.8043 0000170  79.4951 166.4396  1.00269580 34112
GALAXY 17 (G-17)        
1 31307U 07016B   16043.44046591 -.00000191  00000-0  00000+0 0  9996
2 31307   0.0290 350.9948 0003457 340.6917 237.7763  1.00270389 32194
DIRECTV 10              
1 31862U 07032A   16042.89298329 -.00000118  00000-0  00000+0 0  9995
2 31862   0.0151 277.3093 0000200 105.0551 337.6365  1.00269272 31522
SPACEWAY 3              
1 32018U 07036A   16043.41907916 -.00000168  00000-0  00000+0 0  9996
2 32018   0.0024 160.8138 0000215 230.2454 166.7412  1.00271519 31240
INTELSAT 11 (IS-11)     
1 32253U 07044B   16042.42171775 -.00000284  00000-0  00000+0 0  9991
2 32253   0.0677 264.4151 0002632  56.7171 288.5776  1.00272989 30633
HORIZONS-2              
1 32388U 07063B   16042.78519242 -.00000197  00000-0  00000+0 0  9998
2 32388   0.0158  92.1837 0003207 236.1537 180.4516  1.00268637 29996
DIRECTV 11              
1 32729U 08013A   16043.55212875 -.00000143  00000-0  00000+0 0  9992
2 32729   0.0317 255.7321 0000120 332.3616  13.4992  1.00272004 29058
GALAXY 18 (G-18)        
1 32951U 08024A   16042.94878476  .00000009  00000-0  00000+0 0  9998
2 32951   0.0099  97.8680 0003012 232.4460  29.6427  1.00272608 28203
INTELSAT 25 (IS-25)     
1 33153U 08034A   16043.18051322 -.00000240  00000-0  00000+0 0  9992
2 33153   0.0427 268.6826 0002770  39.0315 227.4162  1.00272924 27757
GALAXY 19 (G-19)        
1 33376U 08045A   16043.14234558 -.00000155  00000-0  00000+0 0  9996
2 33376   0.0197  95.5167 0002994 230.3407 129.9834  1.00272370 26946
SIRIUS FM-5             
1 35493U 09034A   16043.20552164 -.00000162  00000-0  00000+0 0  9998
2 35493   0.0571 278.7222 0000375 289.1949 271.7333  1.00272753 24094
INTELSAT 14 (IS-14)     
1 36097U 09064A   16041.73544272 -.00000287  00000-0  00000+0 0  9997
2 36097   0.0096  93.6155 0002300 240.0893  26.2587  1.00282507 22810
INTELSAT 15 (IS-15)     
1 36106U 09067A   16042.88538721 -.00000201  00000-0  00000+0 0  9996
2 36106   0.0181 276.2185 0002338  43.2440 225.7981  1.00270018 22717
DIRECTV 12              
1 36131U 09075A   16043.41881514 -.00000120  00000-0  00000+0 0  9994
2 36131   0.0460 261.4358 0000292 144.3357 144.0716  1.00271314 22506
INTELSAT 16 (IS-16)     
1 36397U 10006A   16042.73120060 -.00000287  00000-0  00000+0 0  9994
2 36397   0.0129 234.6701 0001580  89.6324  10.4409  1.00356403 21846
XM-5                    
1 37185U 10053A   16042.35983362 -.00000220  00000-0  00000+0 0  9999
2 37185   0.0118 287.5317 0000748 309.0218 308.6038  1.00276484 19551
INTELSAT 17 (IS-17)     
1 37238U 10065B   16043.02943676 -.00000018  00000-0  00000+0 0  9995
2 37238   0.0502 263.6860 0003089  63.0418 251.3551  1.00272096 19037
INTELSAT NEW DAWN       
1 37392U 11016A   16043.15368183  .00000139  00000-0  00000+0 0  9994
2 37392   0.0498 277.0317 0000865 181.7099 131.0032  1.00272685 17636
INTELSAT 18 (IS-18)     
1 37834U 11056A   16043.22875668  .00000036  00000-0  00000+0 0  9994
2 37834   0.0198 112.9148 0002179 222.2354  68.8948  1.00270777 15976
INTELSAT 22 (IS-22)     
1 38098U 12011A   16042.62114552  .00000000  00000-0  10000-3 0  9996
2 38098   0.0395  59.4225 0002780 285.1721  92.2083  1.00268575 14178
INTELSAT 19 (IS-19)     
1 38356U 12030A   16042.14815350 -.00000071  00000-0  00000+0 0  9999
2 38356   0.0200   2.8042 0003096 323.9327  33.2184  1.00272316 13627
INTELSAT 20 (IS-20)     
1 38740U 12043A   16041.69938513  .00000000  00000-0  10000-3 0  9992
2 38740   0.0293  96.7124 0000532  74.5015 289.2680  1.00269685 12958
INTELSAT 21 (IS-21)     
1 38749U 12045A   16040.22289199 -.00000296  00000-0  00000+0 0  9993
2 38749   0.0083  70.1172 0002074 269.2894 181.5610  1.00270888 12723
INTELSAT 23 (IS-23)     
1 38867U 12057A   16039.09837856 -.00000293  00000-0  00000-0 0  9997
2 38867   0.0476 268.8059 0002853  46.0084 165.2173  1.00270601 12194
SIRIUS FM-6             
1 39360U 13058A   16042.92979776 -.00000033  00000-0  00000+0 0  9993
2 39360   0.0235  63.1543 0000138 268.6371  28.1819  1.00273377  8467
INTELSAT 30 (IS-30)     
1 40271U 14062A   16043.28117435 -.00000166  00000-0  00000+0 0  9995
2 40271   0.0136 128.8411 0001428  28.5449 350.5093  1.00260671  4886
INTELSAT 34             
1 40874U 15039A   16042.99228942 -.00000302  00000-0  00000+0 0  9994
2 40874   0.0078 130.5712 0000716  86.0842 226.5213  1.00269970  1793
INTELSAT 29E            
1 41308U 16004A   16042.63635009 -.00000297  00000-0  00000+0 0  9990
2 41308   0.1206 291.0254 0000194 176.0538 213.4379  1.00280874   261
